QIANFAN-105             
1 66047U 25233Q   25337.76635728  .00000158  00000+0  99415-4 0  9997
2 66047  88.9965  63.1212 0017294  69.0678 291.2350 13.99258362  6730
QIANFAN-106             
1 66048U 25233R   25337.86796540  .00000251  00000+0  17267-3 0  9997
2 66048  88.9960  63.1167 0017799  67.9150 292.3914 13.96119744  6743
QIANFAN-107             
1 66049U 25233S   25337.48645614  .00000184  00000+0  12175-3 0  9999
2 66049  88.9939  63.1544 0017351  69.8371 290.4671 13.97180687  6697
QIANFAN-108             
1 66050U 25233T   25337.63956559  .00000250  00000+0  17022-3 0  9991
2 66050  88.9961  63.1379 0016844  70.7745 289.5253 13.96632460  6710
